[{"OBJECT_NAME":"COSMOS 2451","OBJECT_ID":"2009-036A","EPOCH":"2026-03-09T22:04:44.603616","MEAN_MOTION":12.40868215,"ECCENTRICITY":0.00077502,"INCLINATION":82.492,"RA_OF_ASC_NODE":153.957,"ARG_OF_PERICENTER":72.2145,"MEAN_ANOMALY":287.9779,"EPHEMERIS_TYPE":0,"CLASSIFICATION_TYPE":"U","NORAD_CAT_ID":35498,"ELEMENT_SET_NO":999,"REV_AT_EPOCH":75533,"BSTAR":0.00023043037,"MEAN_MOTION_DOT":4.1e-7,"MEAN_MOTION_DDOT":0},{"OBJECT_NAME":"COSMOS 1087","OBJECT_ID":"1979-024G","EPOCH":"2026-03-09T22:27:26.797248","MEAN_MOTION":12.42876747,"ECCENTRICITY":0.00369087,"INCLINATION":74.0327,"RA_OF_ASC_NODE":50.4811,"ARG_OF_PERICENTER":16.1221,"MEAN_ANOMALY":47.059,"EPHEMERIS_TYPE":0,"CLASSIFICATION_TYPE":"U","NORAD_CAT_ID":11302,"ELEMENT_SET_NO":999,"REV_AT_EPOCH":13170,"BSTAR":6.1779468e-5,"MEAN_MOTION_DOT":-7.0e-8,"MEAN_MOTION_DDOT":0}]
